ORBCOMM FM103 [+]       
1 40091U 14040F   24102.41151882  .00000837  00000+0  22399-3 0  9997
2 40091  47.0048 254.2633 0001300 115.2730 244.8290 14.56449160518189
ORBCOMM FM114 [+]       
1 41179U 15081A   24101.55365925  .00000910  00000+0  24013-3 0  9997
2 41179  47.0019 167.5975 0001581 198.3832 161.6996 14.56462567441412
ORBCOMM FM119 [-]       
1 41180U 15081B   24102.20916059  .00000787  00000+0  21296-3 0  9994
2 41180  47.0011  73.6957 0001947 253.4255 106.6416 14.56435273442715
ORBCOMM FM105 [-]       
1 41181U 15081C   24102.21438670  .00000382  00000+0  15536-3 0  9995
2 41181  47.0029  37.9138 0001774 208.5596 151.5186 14.44309308438394
ORBCOMM FM110 [+]       
1 41182U 15081D   24101.87380065  .00000926  00000+0  24369-3 0  9999
2 41182  47.0009 165.5000 0002278 316.6026  43.4679 14.56463681441284
ORBCOMM FM118 [+]       
1 41183U 15081E   24102.46841080  .00000914  00000+0  24115-3 0  9991
2 41183  47.0030 162.9979 0002395 317.7605  42.3095 14.56464485441553
ORBCOMM FM112 [+]       
1 41184U 15081F   24102.32419991  .00000703  00000+0  19406-3 0  9992
2 41184  46.9993  72.3811 0001422 247.7860 112.2874 14.56446017442727
ORBCOMM FM113 [+]       
1 41185U 15081G   24101.61528398  .00000891  00000+0  23600-3 0  9995
2 41185  47.0012  75.9809 0001484 265.1699  94.9016 14.56444633442625
